[{"OBJECT_NAME":"STARLINK-1271","OBJECT_ID":"2020-012AR","EPOCH":"2026-03-09T06:10:51.660768","MEAN_MOTION":15.30210928,"ECCENTRICITY":0.00014214,"INCLINATION":53.1602,"RA_OF_ASC_NODE":25.9675,"ARG_OF_PERICENTER":94.3231,"MEAN_ANOMALY":265.7932,"EPHEMERIS_TYPE":0,"CLASSIFICATION_TYPE":"U","NORAD_CAT_ID":45217,"ELEMENT_SET_NO":999,"REV_AT_EPOCH":33509,"BSTAR":0.00014486851,"MEAN_MOTION_DOT":3.935e-5,"MEAN_MOTION_DDOT":0},{"OBJECT_NAME":"CZ-6A DEB","OBJECT_ID":"2022-151QV","EPOCH":"2026-03-09T04:36:08.895168","MEAN_MOTION":15.24642942,"ECCENTRICITY":0.00273347,"INCLINATION":98.639,"RA_OF_ASC_NODE":154.2763,"ARG_OF_PERICENTER":174.5721,"MEAN_ANOMALY":185.5815,"EPHEMERIS_TYPE":0,"CLASSIFICATION_TYPE":"U","NORAD_CAT_ID":54908,"ELEMENT_SET_NO":999,"REV_AT_EPOCH":17373,"BSTAR":0.0098290719,"MEAN_MOTION_DOT":0.00253193,"MEAN_MOTION_DDOT":0}]
